start=new Date('2022-02-10T00:00:00.000Z').valueOf();
sats=[{"GP_ID":"195638322","ECCENTRICITY":"0.00018030","CLASSIFICATION_TYPE":"U","OBJECT_NAME":"STARLINK-1392","BSTAR":"0.00039397000000","OBJECT_TYPE":"PAYLOAD","CENTER_NAME":"EARTH","ARG_OF_PERICENTER":"53.0130","COUNTRY_CODE":"US","SITE":"AFETR","TLE_LINE1":"1 45677U 20035W   22040.35695385  .00005592  00000-0  39397-3 0  9996","MEAN_ANOMALY":"307.1024","RCS_SIZE":"LARGE","TIME_SYSTEM":"UTC","ELEMENT_SET_NO":"999","MEAN_MOTION_DDOT":"0.0000000000000","TLE_LINE2":"2 45677  53.0521 272.5039 0001803  53.0130 307.1024 15.06404006 94252","EPHEMERIS_TYPE":"0","PERIOD":"95.592","MEAN_ELEMENT_THEORY":"SGP4","PERIAPSIS":"545.953","MEAN_MOTION_DOT":"0.00005592","LAUNCH_DATE":"2020-06-04","FILE":"3295989","SEMIMAJOR_AXIS":"6925.336","NORAD_CAT_ID":"45677","RA_OF_ASC_NODE":"272.5039","MEAN_MOTION":"15.06404006","APOAPSIS":"548.450","DECAY_DATE":null,"EPOCH":"2022-02-09T08:34:00.812640","REV_AT_EPOCH":"9425","INCLINATION":"53.0521","REF_FRAME":"TEME","OBJECT_ID":"2020-035W"},{"GP_ID":"195648624","CLASSIFICATION_TYPE":"U","OBJECT_NAME":"STARLINK-1393","ECCENTRICITY":"0.00017950","CENTER_NAME":"EARTH","OBJECT_TYPE":"PAYLOAD","BSTAR":"0.00023901000000","COUNTRY_CODE":"US","ARG_OF_PERICENTER":"61.9542","TIME_SYSTEM":"UTC","RCS_SIZE":"LARGE","MEAN_ANOMALY":"298.1628","SITE":"AFETR","TLE_LINE1":"1 45678U 20035X   22040.74860847  .00003279  00000-0  23901-3 0  9991","ELEMENT_SET_NO":"999","PERIOD":"95.593","MEAN_ELEMENT_THEORY":"SGP4","EPHEMERIS_TYPE":"0","TLE_LINE2":"2 45678  53.0533 260.7287 0001795  61.9542 298.1628 15.06391445 94043","MEAN_MOTION_DDOT":"0.0000000000000","FILE":"3296268","LAUNCH_DATE":"2020-06-04","MEAN_MOTION_DOT":"0.00003279","PERIAPSIS":"545.997","SEMIMAJOR_AXIS":"6925.375","NORAD_CAT_ID":"45678","RA_OF_ASC_NODE":"260.7287","APOAPSIS":"548.483","MEAN_MOTION":"15.06391445","DECAY_DATE":null,"INCLINATION":"53.0533","REV_AT_EPOCH":"9404","EPOCH":"2022-02-09T17:57:59.771808","OBJECT_ID":"2020-035X","REF_FRAME":"TEME"},{"GP_ID":"195648790","CLASSIFICATION_TYPE":"U","OBJECT_NAME":"STARLINK-1394","ECCENTRICITY":"0.00015410","CENTER_NAME":"EARTH","BSTAR":"0.00037115000000","OBJECT_TYPE":"PAYLOAD","COUNTRY_CODE":"US","ARG_OF_PERICENTER":"78.4077","RCS_SIZE":"LARGE","TIME_SYSTEM":"UTC","TLE_LINE1":"1 45679U 20035Y   22040.75227160  .00005252  00000-0  37115-3 0  9993","SITE":"AFETR","MEAN_ANOMALY":"281.7085","ELEMENT_SET_NO":"999","EPHEMERIS_TYPE":"0","MEAN_ELEMENT_THEORY":"SGP4","PERIOD":"95.592","MEAN_MOTION_DDOT":"0.0000000000000","TLE_LINE2":"2 45679  53.0536 260.7262 0001541  78.4077 281.7085 15.06407326 94057","LAUNCH_DATE":"2020-06-04","FILE":"3296268","PERIAPSIS":"546.124","MEAN_MOTION_DOT":"0.00005252","SEMIMAJOR_AXIS":"6925.326","NORAD_CAT_ID":"45679","RA_OF_ASC_NODE":"260.7262","APOAPSIS":"548.258","MEAN_MOTION":"15.06407326","DECAY_DATE":null,"REV_AT_EPOCH":"9405","INCLINATION":"53.0536","EPOCH":"2022-02-09T18:03:16.266240","OBJECT_ID":"2020-035Y","REF_FRAME":"TEME"},{"COUNTRY_CODE":"US","ARG_OF_PERICENTER":"65.9656","CENTER_NAME":"EARTH","BSTAR":"0.00013534000000","OBJECT_TYPE":"PAYLOAD","ELEMENT_SET_NO":"999","RCS_SIZE":"LARGE","TIME_SYSTEM":"UTC","TLE_LINE1":"1 45680U 20035Z   22040.56061412  .00001734  00000-0  13534-3 0  9990","SITE":"AFETR","MEAN_ANOMALY":"294.1497","GP_ID":"195637571","CLASSIFICATION_TYPE":"U","OBJECT_NAME":"STARLINK-1395","ECCENTRICITY":"0.00015740","DECAY_DATE":null,"REF_FRAME":"TEME","OBJECT_ID":"2020-035Z","REV_AT_EPOCH":"9441","INCLINATION":"53.0542","EPOCH":"2022-02-09T13:27:17.059968","LAUNCH_DATE":"2020-06-04","FILE":"3295989","PERIAPSIS":"546.156","MEAN_MOTION_DOT":"0.00001734","EPHEMERIS_TYPE":"0","PERIOD":"95.593","MEAN_ELEMENT_THEORY":"SGP4","MEAN_MOTION_DDOT":"0.0000000000000","TLE_LINE2":"2 45680  53.0542 261.5869 0001574  65.9656 294.1497 15.06389332 94419","APOAPSIS":"548.336","MEAN_MOTION":"15.06389332","RA_OF_ASC_NODE":"261.5869","SEMIMAJOR_AXIS":"6925.381","NORAD_CAT_ID":"45680"},{"DECAY_DATE":null,"REF_FRAME":"TEME","OBJECT_ID":"2020-035AA","EPOCH":"2022-02-09T18:08:35.784672","REV_AT_EPOCH":"9404","INCLINATION":"53.0529","PERIAPSIS":"546.139","MEAN_MOTION_DOT":"0.00002267","LAUNCH_DATE":"2020-06-04","FILE":"3296269","MEAN_MOTION_DDOT":"0.0000000000000","TLE_LINE2":"2 45681  53.0529 260.6914 0001588  68.5050 291.6108 15.06391870 94048","EPHEMERIS_TYPE":"0","PERIOD":"95.593","MEAN_ELEMENT_THEORY":"SGP4","APOAPSIS":"548.338","MEAN_MOTION":"15.06391870","NORAD_CAT_ID":"45681","SEMIMAJOR_AXIS":"6925.373","RA_OF_ASC_NODE":"260.6914","ARG_OF_PERICENTER":"68.5050","COUNTRY_CODE":"US","BSTAR":"0.00017109000000","OBJECT_TYPE":"PAYLOAD","CENTER_NAME":"EARTH","ELEMENT_SET_NO":"999","TLE_LINE1":"1 45681U 20035AA  22040.75596973  .00002267  00000-0  17109-3 0  9991","SITE":"AFETR","MEAN_ANOMALY":"291.6108","RCS_SIZE":"LARGE","TIME_SYSTEM":"UTC","GP_ID":"195648803","ECCENTRICITY":"0.00015880","OBJECT_NAME":"STARLINK-1396","CLASSIFICATION_TYPE":"U"},{"MEAN_ELEMENT_THEORY":"SGP4","PERIOD":"95.593","EPHEMERIS_TYPE":"0","TLE_LINE2":"2 45682  53.0529 263.6435 0001726  54.7339 305.3811 15.06384618 94340","MEAN_MOTION_DDOT":"0.0000000000000","FILE":"3295989","LAUNCH_DATE":"2020-06-04","MEAN_MOTION_DOT":"0.00002286","PERIAPSIS":"546.065","NORAD_CAT_ID":"45682","SEMIMAJOR_AXIS":"6925.396","RA_OF_ASC_NODE":"263.6435","APOAPSIS":"548.456","MEAN_MOTION":"15.06384618","DECAY_DATE":null,"INCLINATION":"53.0529","REV_AT_EPOCH":"9434","EPOCH":"2022-02-09T02:23:48.861312","REF_FRAME":"TEME","OBJECT_ID":"2020-035AB","GP_ID":"195638573","CLASSIFICATION_TYPE":"U","OBJECT_NAME":"STARLINK-1397","ECCENTRICITY":"0.00017260","CENTER_NAME":"EARTH","OBJECT_TYPE":"PAYLOAD","BSTAR":"0.00017237000000","COUNTRY_CODE":"US","ARG_OF_PERICENTER":"54.7339","TIME_SYSTEM":"UTC","RCS_SIZE":"LARGE","MEAN_ANOMALY":"305.3811","TLE_LINE1":"1 45682U 20035AB  22040.09987108  .00002286  00000-0  17237-3 0  9996","SITE":"AFETR","ELEMENT_SET_NO":"999"},{"CENTER_NAME":"EARTH","BSTAR":"0.00020671000000","OBJECT_TYPE":"PAYLOAD","COUNTRY_CODE":"US","ARG_OF_PERICENTER":"61.8399","RCS_SIZE":"LARGE","TIME_SYSTEM":"UTC","SITE":"AFETR","TLE_LINE1":"1 45683U 20035AC  22040.54585455  .00002799  00000-0  20671-3 0  9991","MEAN_ANOMALY":"298.2752","ELEMENT_SET_NO":"999","GP_ID":"195637822","CLASSIFICATION_TYPE":"U","OBJECT_NAME":"STARLINK-1399","ECCENTRICITY":"0.00016070","DECAY_DATE":null,"REV_AT_EPOCH":"9442","INCLINATION":"53.0546","EPOCH":"2022-02-09T13:06:01.833120","OBJECT_ID":"2020-035AC","REF_FRAME":"TEME","EPHEMERIS_TYPE":"0","PERIOD":"95.592","MEAN_ELEMENT_THEORY":"SGP4","MEAN_MOTION_DDOT":"0.0000000000000","TLE_LINE2":"2 45683  53.0546 261.6551 0001607  61.8399 298.2752 15.06400391 94420","LAUNCH_DATE":"2020-06-04","FILE":"3295989","PERIAPSIS":"546.099","MEAN_MOTION_DOT":"0.00002799","SEMIMAJOR_AXIS":"6925.347","NORAD_CAT_ID":"45683","RA_OF_ASC_NODE":"261.6551","APOAPSIS":"548.325","MEAN_MOTION":"15.06400391"},{"GP_ID":"195638072","ECCENTRICITY":"0.00016920","OBJECT_NAME":"STARLINK-1401","CLASSIFICATION_TYPE":"U","ARG_OF_PERICENTER":"69.6886","COUNTRY_CODE":"US","OBJECT_TYPE":"PAYLOAD","BSTAR":"0.00017997000000","CENTER_NAME":"EARTH","ELEMENT_SET_NO":"999","MEAN_ANOMALY":"290.4285","SITE":"AFETR","TLE_LINE1":"1 45684U 20035AD  22040.12566397  .00002399  00000-0  17997-3 0  9993","TIME_SYSTEM":"UTC","RCS_SIZE":"LARGE","MEAN_MOTION_DOT":"0.00002399","PERIAPSIS":"546.073","FILE":"3295989","LAUNCH_DATE":"2020-06-04","TLE_LINE2":"2 45684  53.0538 263.5320 0001692  69.6886 290.4285 15.06389808 94365","MEAN_MOTION_DDOT":"0.0000000000000","PERIOD":"95.593","MEAN_ELEMENT_THEORY":"SGP4","EPHEMERIS_TYPE":"0","MEAN_MOTION":"15.06389808","APOAPSIS":"548.417","SEMIMAJOR_AXIS":"6925.380","NORAD_CAT_ID":"45684","RA_OF_ASC_NODE":"263.5320","DECAY_DATE":null,"OBJECT_ID":"2020-035AD","REF_FRAME":"TEME","EPOCH":"2022-02-09T03:00:57.367008","INCLINATION":"53.0538","REV_AT_EPOCH":"9436"},{"MEAN_MOTION_DDOT":"0.0000000000000","TLE_LINE2":"2 45685  53.0539 262.6690 0001786  59.3764 300.7401 15.06386969 94395","EPHEMERIS_TYPE":"0","PERIOD":"95.593","MEAN_ELEMENT_THEORY":"SGP4","PERIAPSIS":"546.017","MEAN_MOTION_DOT":"0.00004378","LAUNCH_DATE":"2020-06-04","FILE":"3295989","SEMIMAJOR_AXIS":"6925.388","NORAD_CAT_ID":"45685","RA_OF_ASC_NODE":"262.6690","APOAPSIS":"548.490","MEAN_MOTION":"15.06386969","DECAY_DATE":null,"EPOCH":"2022-02-09T07:42:17.403264","REV_AT_EPOCH":"9439","INCLINATION":"53.0539","REF_FRAME":"TEME","OBJECT_ID":"2020-035AE","GP_ID":"195638323","ECCENTRICITY":"0.00017860","CLASSIFICATION_TYPE":"U","OBJECT_NAME":"STARLINK-1402","BSTAR":"0.00031273000000","OBJECT_TYPE":"PAYLOAD","CENTER_NAME":"EARTH","ARG_OF_PERICENTER":"59.3764","COUNTRY_CODE":"US","SITE":"AFETR","TLE_LINE1":"1 45685U 20035AE  22040.32103476  .00004378  00000-0  31273-3 0  9993","MEAN_ANOMALY":"300.7401","RCS_SIZE":"LARGE","TIME_SYSTEM":"UTC","ELEMENT_SET_NO":"999"},{"NORAD_CAT_ID":"45686","SEMIMAJOR_AXIS":"6925.340","RA_OF_ASC_NODE":"262.6874","MEAN_MOTION":"15.06402810","APOAPSIS":"548.262","EPHEMERIS_TYPE":"0","MEAN_ELEMENT_THEORY":"SGP4","PERIOD":"95.592","MEAN_MOTION_DDOT":"0.0000000000000","TLE_LINE2":"2 45686  53.0525 262.6874 0001526  58.2429 301.8709 15.06402810 94390","LAUNCH_DATE":"2020-06-04","FILE":"3295989","PERIAPSIS":"546.148","MEAN_MOTION_DOT":"0.00006296","REV_AT_EPOCH":"9439","INCLINATION":"53.0525","EPOCH":"2022-02-09T07:31:39.528480","OBJECT_ID":"2020-035AF","REF_FRAME":"TEME","DECAY_DATE":null,"CLASSIFICATION_TYPE":"U","OBJECT_NAME":"STARLINK-1404","ECCENTRICITY":"0.00015260","GP_ID":"195639074","RCS_SIZE":"LARGE","TIME_SYSTEM":"UTC","SITE":"AFETR","TLE_LINE1":"1 45686U 20035AF  22040.31365195  .00006296  00000-0  44113-3 0  9999","MEAN_ANOMALY":"301.8709","ELEMENT_SET_NO":"999","CENTER_NAME":"EARTH","BSTAR":"0.00044113000000","OBJECT_TYPE":"PAYLOAD","COUNTRY_CODE":"US","ARG_OF_PERICENTER":"58.2429"}];
